{"fetched_at": "2026-06-04T18:22:40.317528+00:00", "line1": "1 41727U 16049A   26155.17965652 -.00000102  00000+0 -17642-4 0  9999", "line2": "2 41727  98.4008 163.1619 0001117  97.5545 262.5772 14.42213247516771"}
{"fetched_at": "2026-06-22T01:52:51.385762+00:00", "line1": "1 41727U 16049A   26172.52416935  .00000126  00000+0  51315-4 0  9991", "line2": "2 41727  98.4013 180.2452 0001476  97.9116 262.2242 14.42216237519277"}
{"fetched_at": "2026-06-24T08:25:59.533343+00:00", "line1": "1 41727U 16049A   26173.84235184 -.00000051  00000+0 -22142-5 0  9998", "line2": "2 41727  98.4016 181.5430 0001510  97.7580 262.3781 14.42215695519469"}
{"fetched_at": "2026-06-24T08:26:28.636571+00:00", "line1": "1 41727U 16049A   26172.52416935  .00000126  00000+0  51315-4 0  9991", "line2": "2 41727  98.4013 180.2452 0001476  97.9116 262.2242 14.42216237519277"}
